{
    "links": {
        "self": "http://www.neowsapp.com/rest/v1/neo/3989146?api_key=iIulBulltgU6a56xZRHN4H3l9WmuAYTsLGpBGhQ2"
    },
    "id": "3989146",
    "neo_reference_id": "3989146",
    "name": "(2020 BF6)",
    "designation": "2020 BF6",
    "nasa_jpl_url": "http://ssd.jpl.nasa.gov/sbdb.cgi?sstr=3989146",
    "absolute_magnitude_h": 25.377,
    "estimated_diameter": {
        "kilometers": {
            "estimated_diameter_min": 0.0223436941,
            "estimated_diameter_max": 0.0499620188
        },
        "meters": {
            "estimated_diameter_min": 22.3436940821,
            "estimated_diameter_max": 49.9620188361
        },
        "miles": {
            "estimated_diameter_min": 0.0138837235,
            "estimated_diameter_max": 0.0310449496
        },
        "feet": {
            "estimated_diameter_min": 73.3060852924,
            "estimated_diameter_max": 163.9173898783
        }
    },
    "is_potentially_hazardous_asteroid": false,
    "close_approach_data": [
        {
            "close_approach_date": "2016-03-05",
            "close_approach_date_full": "2016-Mar-05 11:28",
            "epoch_date_close_approach": 1457177280000,
            "relative_velocity": {
                "kilometers_per_second": "19.2511382317",
                "kilometers_per_hour": "69304.0976341686",
                "miles_per_hour": "43062.8711105199"
            },
            "miss_distance": {
                "astronomical": "0.4769287665",
                "lunar": "185.5252901685",
                "kilometers": "71347527.610127355",
                "miles": "44333297.894593299"
            },
            "orbiting_body": "Earth"
        },
        {
            "close_approach_date": "2018-02-16",
            "close_approach_date_full": "2018-Feb-16 03:59",
            "epoch_date_close_approach": 1518753540000,
            "relative_velocity": {
                "kilometers_per_second": "12.7748124855",
                "kilometers_per_hour": "45989.3249477035",
                "miles_per_hour": "28575.978048755"
            },
            "miss_distance": {
                "astronomical": "0.2393431041",
                "lunar": "93.1044674949",
                "kilometers": "35805218.572548267",
                "miles": "22248331.1521574046"
            },
            "orbiting_body": "Earth"
        },
        {
            "close_approach_date": "2020-01-22",
            "close_approach_date_full": "2020-Jan-22 17:16",
            "epoch_date_close_approach": 1579713360000,
            "relative_velocity": {
                "kilometers_per_second": "8.7406318374",
                "kilometers_per_hour": "31466.2746146033",
                "miles_per_hour": "19551.9193570572"
            },
            "miss_distance": {
                "astronomical": "0.0186662536",
                "lunar": "7.2611726504",
                "kilometers": "2792431.779439832",
                "miles": "1735136.6483884016"
            },
            "orbiting_body": "Earth"
        },
        {
            "close_approach_date": "2021-12-27",
            "close_approach_date_full": "2021-Dec-27 08:39",
            "epoch_date_close_approach": 1640594340000,
            "relative_velocity": {
                "kilometers_per_second": "10.6563169395",
                "kilometers_per_hour": "38362.7409822684",
                "miles_per_hour": "23837.1153620101"
            },
            "miss_distance": {
                "astronomical": "0.1850750394",
                "lunar": "71.9941903266",
                "kilometers": "27686831.684406078",
                "miles": "17203799.4579087564"
            },
            "orbiting_body": "Earth"
        },
        {
            "close_approach_date": "2023-12-07",
            "close_approach_date_full": "2023-Dec-07 01:48",
            "epoch_date_close_approach": 1701913680000,
            "relative_velocity": {
                "kilometers_per_second": "16.148295714",
                "kilometers_per_hour": "58133.8645702654",
                "miles_per_hour": "36122.1226825629"
            },
            "miss_distance": {
                "astronomical": "0.3919288556",
                "lunar": "152.4603248284",
                "kilometers": "58631721.989297572",
                "miles": "36432062.6669556136"
            },
            "orbiting_body": "Earth"
        }
    ],
    "orbital_data": {
        "orbit_id": "2",
        "orbit_determination_date": "2020-01-25 05:45:30",
        "first_observation_date": "2020-01-23",
        "last_observation_date": "2020-01-24",
        "data_arc_in_days": 1,
        "observations_used": 67,
        "orbit_uncertainty": "7",
        "minimum_orbit_intersection": ".0167249",
        "jupiter_tisserand_invariant": "4.311",
        "epoch_osculation": "2459000.5",
        "eccentricity": ".363653324711873",
        "semi_major_axis": "1.569980027051519",
        "inclination": "13.10566843026393",
        "ascending_node_longitude": "301.1203221842468",
        "orbital_period": "718.5212521113458",
        "perihelion_distance": ".9990515704829976",
        "perihelion_argument": "173.290399890398",
        "aphelion_distance": "2.14090848362004",
        "perihelion_time": "2458865.137276396204",
        "mean_anomaly": "67.82065297884166",
        "mean_motion": ".5010290216777228",
        "equinox": "J2000",
        "orbit_class": {
            "orbit_class_type": "APO",
            "orbit_class_description": "Near-Earth asteroid orbits which cross the Earth’s orbit similar to that of 1862 Apollo",
            "orbit_class_range": "a (semi-major axis) > 1.0 AU; q (perihelion) < 1.017 AU"
        }
    },
    "is_sentry_object": false
}